{"type":"FeatureCollection","features":[{"type":"Feature","id":2,"geometry":{"type":"Polygon","coordinates":[[[176.11338272921012,-38.147253429443801],[176.11371580906479,-38.177319616758851],[176.1406896156669,-38.17712999895172],[176.16766284808756,-38.176934179923229],[176.16815996496976,-38.176590788054007],[176.16841592876554,-38.176497283507835],[176.16866547417922,-38.176349431692252],[176.16876990182575,-38.176227949718836],[176.16884789864207,-38.176059074387467],[176.16898284662372,-38.175891867905129],[176.16917952669672,-38.175649231342355],[176.16931211114056,-38.175427568265398],[176.16944174763773,-38.175231641518565],[176.169770222301,-38.175030341310737],[176.17014333222787,-38.174827834933879],[176.17041860469604,-38.174711355757289],[176.17050887932686,-38.174638360202685],[176.17052933751054,-38.174548009315224],[176.17043715306249,-38.174318436069889],[176.1704200781509,-38.174224481348091],[176.17046586522585,-38.174141142631541],[176.17057181011862,-38.174125964473184],[176.17069522337002,-38.174093893653605],[176.1707913314788,-38.17403177217556],[176.17088224590941,-38.173969791902785],[176.17096126024512,-38.17387324001303],[176.17106032145264,-38.173819248718459],[176.17117172602147,-38.173810079435832],[176.17146751605122,-38.17369843083452],[176.17162129657814,-38.173684652330124],[176.17177496586388,-38.173574664012499],[176.17185501129961,-38.173546843000743],[176.17192427209432,-38.173551385003655],[176.17195362214454,-38.173666046212304],[176.17174336667418,-38.173969989001954],[176.17159303184798,-38.174156856693507],[176.17076635764727,-38.175048321460075],[176.17054322407972,-38.17533657452924],[176.1699033401953,-38.175757958487324],[176.1695913725836,-38.175965226859446],[176.16937707337095,-38.176176269530771],[176.16933882407548,-38.176324828291577],[176.16933962669196,-38.176437054089277],[176.16928330886958,-38.176637414628161],[176.16918110365441,-38.176810150658561],[176.16906730683741,-38.176923813718716],[176.17576863614431,-38.176874120905524],[176.17541005850055,-38.14680922269195],[176.15990351213318,-38.146923347829969],[176.1443967740818,-38.147035424042627],[176.12888984591717,-38.14714545126774],[176.11338272921012,-38.147253429443801]]]},"properties":{"OBJECTID":2,"Shape_Length":18474.332883219868,"Shape_Area":18137134.981222164,"study_id":null,"project_name":null,"data_status":null,"area_km2":null}}]}